*******************************************************************************
Ephemeris / WWW_USER Mon Mar 24 09:30:35 2025 Pasadena, USA      / Horizons    
*******************************************************************************
Target body name: (2018 PL28)                     {source: JPL#6}
Center body name: Earth (399)                     {source: DE441}
Center-site name: Mauna Kea
*******************************************************************************
Start time      : A.D. 2018-Nov-11 03:53:00.0000 UT      
Stop  time      : A.D. 2018-Nov-11 16:18:00.0000 UT      
Step-size       : 1 minutes
*******************************************************************************
Target pole/equ : undefined
Target radii    : undefined                                                    
Center geodetic : 204.5278, 19.8260847, 4.21024   {E-lon(deg),Lat(deg),Alt(km)}
Center cylindric: 204.5278, 6006.35451, 2151.0229 {E-lon(deg),Dxy(km),Dz(km)}
Center pole/equ : ITRF93                          {East-longitude positive}
Center radii    : 6378.137, 6378.137, 6356.752 km {Equator_a, b, pole_c}       
Target primary  : Sun
Vis. interferer : MOON (R_eq= 1737.400) km        {source: DE441}
Rel. light bend : Sun                             {source: DE441}
Rel. lght bnd GM: 1.3271E+11 km^3/s^2                                          
Small-body perts: Yes                             {source: SB441-N16}
Atmos refraction: NO (AIRLESS)
RA format       : HMS
Time format     : CAL 
Calendar mode   : Mixed Julian/Gregorian
RTS-only print  : NO       
EOP file        : eop.250321.p250617                                           
EOP coverage    : DATA-BASED 1962-JAN-20 TO 2025-MAR-21. PREDICTS-> 2025-JUN-16
Units conversion: 1 au= 149597870.700 km, c= 299792.458 km/s, 1 day= 86400.0 s 
Table cut-offs 1: Elevation (-90.0deg=NO ),Airmass (>38.000=NO), Daylight (YES)
Table cut-offs 2: Solar elongation (  0.0,180.0=NO ),Local Hour Angle( 0.0=NO )
Table cut-offs 3: RA/DEC angular rate (     0.0=NO )                           
*******************************************************************************
Initial IAU76/J2000 heliocentric ecliptic osculating elements (au, days, deg.):
  EPOCH=  2457854.5 ! 2017-Apr-11.00 (TDB)         Residual RMS= .19092        
   EC= .8623380004677549   QR= 2.686075926237564   TP= 2457951.5509793968      
   OM= 350.7805373480467   W=  275.0956674869335   IN= 74.19591911353062       
  Equivalent ICRF heliocentric cartesian coordinates (au, au/d):
   X=-1.230595634603956E+00  Y= 5.216934222523280E-01  Z=-2.512561684350396E+00
  VX= 1.337943797263742E-02 VY=-1.672601025687851E-03 VZ=-3.313586071138778E-03
Asteroid physical parameters (km, seconds, rotational period in hours):        
   GM= n.a.                RAD= n.a.               ROTPER= n.a.                
   H= 14.87                G= .150                 B-V= n.a.                   
                           ALBEDO= n.a.            STYP= n.a.                  
*******************************************************************************
 Date__(UT)__HR:MN     R.A._________(ICRF)_________DEC
******************************************************
$$SOE
 2018-Nov-11 07:59     22 44 05.439553 -01 12 06.62054
 2018-Nov-11 08:00     22 44 05.427877 -01 12 06.50346
 2018-Nov-11 08:01     22 44 05.416203 -01 12 06.38637
 2018-Nov-11 08:02     22 44 05.404530 -01 12 06.26928
 2018-Nov-11 08:03     22 44 05.392859 -01 12 06.15219
 2018-Nov-11 08:04     22 44 05.381190 -01 12 06.03509
 2018-Nov-11 08:05     22 44 05.369523 -01 12 05.91800
 2018-Nov-11 08:06     22 44 05.357857 -01 12 05.80090
 2018-Nov-11 08:07     22 44 05.346194 -01 12 05.68380
 2018-Nov-11 08:08     22 44 05.334532 -01 12 05.56670
 2018-Nov-11 08:09     22 44 05.322871 -01 12 05.44960
 2018-Nov-11 08:10     22 44 05.311213 -01 12 05.33250
 2018-Nov-11 08:11     22 44 05.299556 -01 12 05.21539
 2018-Nov-11 08:12     22 44 05.287902 -01 12 05.09829
 2018-Nov-11 08:13     22 44 05.276249 -01 12 04.98118
 2018-Nov-11 08:14     22 44 05.264598 -01 12 04.86407
 2018-Nov-11 08:15     22 44 05.252948 -01 12 04.74696
 2018-Nov-11 08:16     22 44 05.241301 -01 12 04.62984
 2018-Nov-11 08:17     22 44 05.229655 -01 12 04.51273
 2018-Nov-11 08:18     22 44 05.218012 -01 12 04.39561
 2018-Nov-11 08:19     22 44 05.206370 -01 12 04.27849
 2018-Nov-11 08:20     22 44 05.194730 -01 12 04.16137
 2018-Nov-11 08:21     22 44 05.183092 -01 12 04.04425
 2018-Nov-11 08:22     22 44 05.171456 -01 12 03.92712
 2018-Nov-11 08:23     22 44 05.159822 -01 12 03.81000
 2018-Nov-11 08:24     22 44 05.148190 -01 12 03.69287
 2018-Nov-11 08:25     22 44 05.136559 -01 12 03.57574
 2018-Nov-11 08:26     22 44 05.124931 -01 12 03.45861
 2018-Nov-11 08:27     22 44 05.113304 -01 12 03.34148
 2018-Nov-11 08:28     22 44 05.101680 -01 12 03.22434
 2018-Nov-11 08:29     22 44 05.090057 -01 12 03.10721
 2018-Nov-11 08:30     22 44 05.078437 -01 12 02.99007
 2018-Nov-11 08:31     22 44 05.066818 -01 12 02.87293
 2018-Nov-11 08:32     22 44 05.055201 -01 12 02.75579
 2018-Nov-11 08:33     22 44 05.043587 -01 12 02.63864
 2018-Nov-11 08:34     22 44 05.031974 -01 12 02.52150
 2018-Nov-11 08:35     22 44 05.020363 -01 12 02.40435
 2018-Nov-11 08:36     22 44 05.008755 -01 12 02.28720
 2018-Nov-11 08:37     22 44 04.997148 -01 12 02.17006
 2018-Nov-11 08:38     22 44 04.985543 -01 12 02.05290
 2018-Nov-11 08:39     22 44 04.973941 -01 12 01.93575
 2018-Nov-11 08:40     22 44 04.962340 -01 12 01.81860
 2018-Nov-11 08:41     22 44 04.950742 -01 12 01.70144
 2018-Nov-11 08:42     22 44 04.939145 -01 12 01.58428
 2018-Nov-11 08:43     22 44 04.927551 -01 12 01.46712
 2018-Nov-11 08:44     22 44 04.915959 -01 12 01.34996
 2018-Nov-11 08:45     22 44 04.904368 -01 12 01.23280
 2018-Nov-11 08:46     22 44 04.892780 -01 12 01.11563
 2018-Nov-11 08:47     22 44 04.881194 -01 12 00.99847
 2018-Nov-11 08:48     22 44 04.869610 -01 12 00.88130
 2018-Nov-11 08:49     22 44 04.858028 -01 12 00.76413
 2018-Nov-11 08:50     22 44 04.846448 -01 12 00.64696
 2018-Nov-11 08:51     22 44 04.834871 -01 12 00.52978
 2018-Nov-11 08:52     22 44 04.823295 -01 12 00.41261
 2018-Nov-11 08:53     22 44 04.811722 -01 12 00.29543
 2018-Nov-11 08:54     22 44 04.800151 -01 12 00.17825
 2018-Nov-11 08:55     22 44 04.788581 -01 12 00.06107
 2018-Nov-11 08:56     22 44 04.777014 -01 11 59.94389
 2018-Nov-11 08:57     22 44 04.765450 -01 11 59.82671
 2018-Nov-11 08:58     22 44 04.753887 -01 11 59.70952
 2018-Nov-11 08:59     22 44 04.742326 -01 11 59.59234
 2018-Nov-11 09:00     22 44 04.730768 -01 11 59.47515
 2018-Nov-11 09:01     22 44 04.719212 -01 11 59.35796
 2018-Nov-11 09:02     22 44 04.707658 -01 11 59.24077
 2018-Nov-11 09:03     22 44 04.696106 -01 11 59.12358
 2018-Nov-11 09:04     22 44 04.684557 -01 11 59.00638
 2018-Nov-11 09:05     22 44 04.673010 -01 11 58.88919
 2018-Nov-11 09:06     22 44 04.661464 -01 11 58.77199
 2018-Nov-11 09:07     22 44 04.649922 -01 11 58.65479
 2018-Nov-11 09:08     22 44 04.638381 -01 11 58.53759
 2018-Nov-11 09:09     22 44 04.626842 -01 11 58.42039
 2018-Nov-11 09:10     22 44 04.615306 -01 11 58.30318
 2018-Nov-11 09:11     22 44 04.603772 -01 11 58.18598
 2018-Nov-11 09:12     22 44 04.592241 -01 11 58.06877
 2018-Nov-11 09:13     22 44 04.580711 -01 11 57.95156
 2018-Nov-11 09:14     22 44 04.569184 -01 11 57.83435
 2018-Nov-11 09:15     22 44 04.557659 -01 11 57.71714
 2018-Nov-11 09:16     22 44 04.546137 -01 11 57.59992
 2018-Nov-11 09:17     22 44 04.534616 -01 11 57.48271
 2018-Nov-11 09:18     22 44 04.523098 -01 11 57.36549
 2018-Nov-11 09:19     22 44 04.511583 -01 11 57.24827
 2018-Nov-11 09:20     22 44 04.500069 -01 11 57.13105
 2018-Nov-11 09:21     22 44 04.488558 -01 11 57.01383
 2018-Nov-11 09:22     22 44 04.477049 -01 11 56.89661
 2018-Nov-11 09:23     22 44 04.465543 -01 11 56.77938
 2018-Nov-11 09:24     22 44 04.454039 -01 11 56.66215
 2018-Nov-11 09:25     22 44 04.442537 -01 11 56.54493
 2018-Nov-11 09:26     22 44 04.431038 -01 11 56.42770
 2018-Nov-11 09:27     22 44 04.419540 -01 11 56.31047
 2018-Nov-11 09:28     22 44 04.408046 -01 11 56.19323
 2018-Nov-11 09:29     22 44 04.396553 -01 11 56.07600
 2018-Nov-11 09:30     22 44 04.385063 -01 11 55.95876
 2018-Nov-11 09:31     22 44 04.373576 -01 11 55.84152
 2018-Nov-11 09:32     22 44 04.362090 -01 11 55.72429
 2018-Nov-11 09:33     22 44 04.350607 -01 11 55.60705
 2018-Nov-11 09:34     22 44 04.339127 -01 11 55.48980
 2018-Nov-11 09:35     22 44 04.327649 -01 11 55.37256
 2018-Nov-11 09:36     22 44 04.316173 -01 11 55.25531
 2018-Nov-11 09:37     22 44 04.304699 -01 11 55.13807
 2018-Nov-11 09:38     22 44 04.293228 -01 11 55.02082
 2018-Nov-11 09:39     22 44 04.281760 -01 11 54.90357
 2018-Nov-11 09:40     22 44 04.270294 -01 11 54.78632
 2018-Nov-11 09:41     22 44 04.258830 -01 11 54.66906
 2018-Nov-11 09:42     22 44 04.247369 -01 11 54.55181
 2018-Nov-11 09:43     22 44 04.235910 -01 11 54.43455
 2018-Nov-11 09:44     22 44 04.224454 -01 11 54.31730
 2018-Nov-11 09:45     22 44 04.213000 -01 11 54.20004
 2018-Nov-11 09:46     22 44 04.201548 -01 11 54.08278
 2018-Nov-11 09:47     22 44 04.190099 -01 11 53.96551
 2018-Nov-11 09:48     22 44 04.178652 -01 11 53.84825
 2018-Nov-11 09:49     22 44 04.167208 -01 11 53.73098
 2018-Nov-11 09:50     22 44 04.155767 -01 11 53.61372
 2018-Nov-11 09:51     22 44 04.144327 -01 11 53.49645
 2018-Nov-11 09:52     22 44 04.132891 -01 11 53.37918
 2018-Nov-11 09:53     22 44 04.121456 -01 11 53.26191
 2018-Nov-11 09:54     22 44 04.110025 -01 11 53.14464
 2018-Nov-11 09:55     22 44 04.098595 -01 11 53.02736
 2018-Nov-11 09:56     22 44 04.087168 -01 11 52.91009
 2018-Nov-11 09:57     22 44 04.075744 -01 11 52.79281
 2018-Nov-11 09:58     22 44 04.064322 -01 11 52.67553
 2018-Nov-11 09:59     22 44 04.052903 -01 11 52.55825
 2018-Nov-11 10:00     22 44 04.041486 -01 11 52.44097
 2018-Nov-11 10:01     22 44 04.030072 -01 11 52.32368
